NORAD_CAT_ID,OBJECT_NAME,OBJECT_TYPE,EPOCH,MEAN_MOTION,ECCENTRICITY,INCLINATION,RA_OF_ASC_NODE,ARG_OF_PERICENTER,MEAN_ANOMALY,BSTAR,MEAN_MOTION_DOT,MEAN_MOTION_DDOT,TLE_LINE0,TLE_LINE1,TLE_LINE2,SEMIMAJOR_AXIS,PERIOD,APOGEE,PERIGEE,DECAYED
51876.0,STARLINK-3583,PAYLOAD,2022-10-19 20:07:40,15.08846615,0.0001911999999999,53.2164,161.5525,47.327,312.7883,0.00018778,2.702e-05,0.0,0 STARLINK-3583,1 51876U 22022AA  22292.83866411  .00002702  00000-0  18778-3 0  9994,2 51876  53.2164 161.5525 0001912  47.3270 312.7883 15.08846615 36398,6917.86,95.437,541.048,538.4019999999998,0.0
51876.0,STARLINK-3583,PAYLOAD,2022-10-19 21:43:03,15.08844667,0.0001935,53.2167,161.2556,46.4272,313.6881,0.0001675,2.379e-05,0.0,0 STARLINK-3583,1 51876U 22022AA  22292.90490544  .00002379  00000-0  16750-3 0  9990,2 51876  53.2167 161.2556 0001935  46.4272 313.6881 15.08844667 36404,6917.866,95.437,541.07,538.393,0.0
51876.0,STARLINK-3583,PAYLOAD,2022-10-20 08:50:45,15.088443099999996,0.0001966999999999,53.2177,159.175,49.0527,311.0635,0.00018045,2.585e-05,0.0,0 STARLINK-3583,1 51876U 22022AA  22293.36858671  .00002585  00000-0  18045-3 0  9998,2 51876  53.2177 159.1750 0001967  49.0527 311.0635 15.08844310 36475,6917.8669999999975,95.437,541.0930000000002,538.371,0.0
51876.0,STARLINK-3583,PAYLOAD,2022-10-20 21:33:50,15.08847838,0.0001824,53.2171,156.7954,52.3829,307.7329,0.0002322,3.41e-05,0.0,0 STARLINK-3583,1 51876U 22022AA  22293.89850421  .00003410  00000-0  23220-3 0  9990,2 51876  53.2171 156.7954 0001824  52.3829 307.7329 15.08847838 36551,6917.856,95.437,540.9830000000002,538.46,0.0
51876.0,STARLINK-3583,PAYLOAD,2022-10-21 00:44:36,15.08851548,0.0001911999999999,53.2164,156.2001,47.2921,312.8232,0.00031154,4.675e-05,0.0,0 STARLINK-3583,1 51876U 22022AA  22294.03098263  .00004675  00000-0  31154-3 0  9994,2 51876  53.2164 156.2001 0001912  47.2921 312.8232 15.08851548 36570,6917.845,95.437,541.033,538.387,0.0
51876.0,STARLINK-3583,PAYLOAD,2022-10-21 18:13:52,15.08826812,0.0002043,53.2165,152.9289,55.8666,304.252,0.00062911,9.735e-05,0.0,0 STARLINK-3583,1 51876U 22022AA  22294.75963361  .00009735  00000-0  62911-3 0  9990,2 51876  53.2165 152.9289 0002043  55.8666 304.2520 15.08826812 36682,6917.920999999999,95.438,541.1990000000002,538.372,0.0
51876.0,STARLINK-3583,PAYLOAD,2022-10-22 00:35:23,15.08851026,0.0001882,53.2164,151.7391,50.8451,309.2708,4.2828e-05,3.94e-06,0.0,0 STARLINK-3583,1 51876U 22022AA  22295.02457901  .00000394  00000-0  42828-4 0  9997,2 51876  53.2164 151.7391 0001882  50.8451 309.2708 15.08851026 36722,6917.847,95.437,541.014,538.41,0.0
51876.0,STARLINK-3583,PAYLOAD,2022-10-22 21:15:24,15.08845796,0.0001871,53.2161,147.8737,46.7013,313.4135,5.7929e-05,6.34e-06,0.0,0 STARLINK-3583,1 51876U 22022AA  22295.88569993  .00000634  00000-0  57929-4 0  9991,2 51876  53.2161 147.8737 0001871  46.7013 313.4135 15.08845796 36857,6917.863,95.437,541.0219999999998,538.433,0.0
51876.0,STARLINK-3583,PAYLOAD,2022-10-22 22:50:47,15.08846673,0.0001882,53.2161,147.5762,46.6563,313.4585,6.9015e-05,8.11e-06,0.0,0 STARLINK-3583,1 51876U 22022AA  22295.95193926  .00000811  00000-0  69015-4 0  9994,2 51876  53.2161 147.5762 0001882  46.6563 313.4585 15.08846673 36868,6917.86,95.437,541.0269999999998,538.423,0.0
51876.0,STARLINK-3583,PAYLOAD,2022-10-23 19:30:48,15.08843322,0.0001899,53.2159,143.71,45.472,314.6427,1.6255e-05,-2.9e-07,0.0,0 STARLINK-3583,1 51876U 22022AA  22296.81305702 -.00000029  00000-0  16255-4 0  9997,2 51876  53.2159 143.7100 0001899  45.4720 314.6427 15.08843322 36999,6917.87,95.437,541.049,538.422,0.0
51876.0,STARLINK-3583,PAYLOAD,2022-10-24 00:16:57,15.08842173,0.0001895,53.216,142.8177,54.2069,305.9099,3.3737e-05,2.49e-06,0.0,0 STARLINK-3583,1 51876U 22022AA  22297.01177707  .00000249  00000-0  33737-4 0  9999,2 51876  53.2160 142.8177 0001895  54.2069 305.9099 15.08842173 37021,6917.874,95.437,541.05,538.428,0.0
51876.0,STARLINK-3583,PAYLOAD,2022-10-24 06:38:29,15.0884343,0.0001966,53.216,141.6282,47.6537,312.4621,1.0552e-05,-1.2e-06,0.0,0 STARLINK-3583,1 51876U 22022AA  22297.27673558 -.00000120  00000-0  10552-4 0  9991,2 51876  53.2160 141.6282 0001966  47.6537 312.4621 15.08843430 37065,6917.87,95.437,541.095,538.375,0.0
51876.0,STARLINK-3583,PAYLOAD,2022-10-24 19:21:37,15.08815726,0.0001849,53.2171,139.2494,48.5399,311.5752,-0.00015121,-2.692e-05,0.0,0 STARLINK-3583,1 51876U 22022AA  22297.80668330 -.00002692  00000-0 -15121-3 0  9995,2 51876  53.2171 139.2494 0001849  48.5399 311.5752 15.08815726 37142,6917.955,95.439,541.099,538.54,0.0
51876.0,STARLINK-3583,PAYLOAD,2022-10-25 06:29:19,15.08822082,0.0001948,53.2173,137.1679,47.8599,312.2558,-0.0001163,-2.138e-05,0.0,0 STARLINK-3583,1 51876U 22022AA  22298.27036341 -.00002138  00000-0 -11630-3 0  9994,2 51876  53.2173 137.1679 0001948  47.8599 312.2558 15.08822082 37213,6917.935,95.439,541.148,538.453,0.0
51876.0,STARLINK-3583,PAYLOAD,2022-10-25 19:12:23,15.08831128,0.0001911,53.2173,134.7898,46.9414,313.1738,4.6704e-05,4.55e-06,0.0,0 STARLINK-3583,1 51876U 22022AA  22298.80027584  .00000455  00000-0  46704-4 0  9991,2 51876  53.2173 134.7898 0001911  46.9414 313.1738 15.08831128 37294,6917.908,95.438,541.095,538.45,0.0
51876.0,STARLINK-3583,PAYLOAD,2022-10-26 06:20:05,15.08835625,0.0001814,53.2169,132.7075,48.5494,311.5654,6.4419e-05,7.37e-06,0.0,0 STARLINK-3583,1 51876U 22022AA  22299.26395497  .00000737  00000-0  64419-4 0  9999,2 51876  53.2169 132.7075 0001814  48.5494 311.5654 15.08835625 37365,6917.894,95.438,541.014,538.504,0.0
51876.0,STARLINK-3583,PAYLOAD,2022-10-26 19:03:10,15.08833805,0.0001699,53.2169,130.3281,46.0994,314.0138,0.00020103,2.912e-05,0.0,0 STARLINK-3583,1 51876U 22022AA  22299.79387520  .00002912  00000-0  20103-3 0  9993,2 51876  53.2169 130.3281 0001699  46.0994 314.0138 15.08833805 37449,6917.899,95.438,540.94,538.589,0.0
51876.0,STARLINK-3583,PAYLOAD,2022-10-26 22:13:57,15.08832389,0.0001873,53.2172,129.7346,45.6442,314.4703,0.00028573,4.261e-05,0.0,0 STARLINK-3583,1 51876U 22022AA  22299.92635725  .00004261  00000-0  28573-3 0  9999,2 51876  53.2172 129.7346 0001873  45.6442 314.4703 15.08832389 37464,6917.904,95.438,541.064,538.4730000000002,0.0
51876.0,STARLINK-3583,PAYLOAD,2022-10-27 12:32:25,15.08848738,0.000184,53.2173,127.058,46.5142,313.6002,0.00018314,2.628e-05,0.0,0 STARLINK-3583,1 51876U 22022AA  22300.52251171  .00002628  00000-0  18314-3 0  9994,2 51876  53.2173 127.0580 0001840  46.5142 313.6002 15.08848738 37555,6917.854,95.437,540.992,538.446,0.0
51876.0,STARLINK-3583,PAYLOAD,2022-10-27 18:53:57,15.08853885,0.0001831999999999,53.2173,125.8684,46.8345,313.28,0.00020494,2.976e-05,0.0,0 STARLINK-3583,1 51876U 22022AA  22300.78746724  .00002976  00000-0  20494-3 0  9993,2 51876  53.2173 125.8684 0001832  46.8345 313.2800 15.08853885 37590,6917.8380000000025,95.437,540.97,538.436,0.0
51876.0,STARLINK-3583,PAYLOAD,2022-10-28 10:47:48,15.0885324,0.0001899999999999,53.2165,122.8945,48.3864,311.7291,0.00015544,2.187e-05,0.0,0 STARLINK-3583,1 51876U 22022AA  22301.44986665  .00002187  00000-0  15544-3 0  9991,2 51876  53.2165 122.8945 0001900  48.3864 311.7291 15.08853240 37690,6917.84,95.437,541.019,538.391,0.0
51876.0,STARLINK-3583,PAYLOAD,2022-10-28 18:44:44,15.08848872,0.0001841999999999,53.2178,121.4076,49.5746,310.5406,7.0174e-05,8.29e-06,0.0,0 STARLINK-3583,1 51876U 22022AA  22301.78106725  .00000829  00000-0  70174-4 0  9991,2 51876  53.2178 121.4076 0001842  49.5746 310.5406 15.08848872 37747,6917.853,95.437,540.993,538.444,0.0
51876.0,STARLINK-3583,PAYLOAD,2022-10-28 21:55:30,15.08850821,0.000184,53.2178,120.8126,50.2982,309.8172,8.1647e-05,1.012e-05,0.0,0 STARLINK-3583,1 51876U 22022AA  22301.91354468  .00001012  00000-0  81647-4 0  9997,2 51876  53.2178 120.8126 0001840  50.2982 309.8172 15.08850821 37765,6917.847,95.437,540.985,538.439,0.0
51876.0,STARLINK-3583,PAYLOAD,2022-10-29 18:35:30,15.08847097,0.0001906,53.2175,116.9471,49.4349,310.6808,-2.9403000000000013e-05,-7.56e-06,0.0,0 STARLINK-3583,1 51876U 22022AA  22302.77466389 -.00000756  00000-0 -29403-4 0  9996,2 51876  53.2175 116.9471 0001906  49.4349 310.6808 15.08847097 37892,6917.859,95.437,541.0419999999998,538.405,0.0
51876.0,STARLINK-3583,PAYLOAD,2022-10-30 10:29:21,15.08848244,0.0001829,53.2172,113.9731,44.7919,315.322,0.00011392,1.526e-05,0.0,0 STARLINK-3583,1 51876U 22022AA  22303.43705558  .00001526  00000-0  11392-3 0  9995,2 51876  53.2172 113.9731 0001829  44.7919 315.3220 15.08848244 37996,6917.855,95.437,540.985,538.455,0.0
51876.0,STARLINK-3583,PAYLOAD,2022-10-30 20:01:41,15.08838841,0.0001771,53.2172,112.1883,43.0579,317.0552,-1.1532e-07,-2.9e-06,0.0,0 STARLINK-3583,1 51876U 22022AA  22303.83450343 -.00000290  00000-0 -11532-6 0  9996,2 51876  53.2172 112.1883 0001771  43.0579 317.0552 15.08838841 38052,6917.884,95.438,540.974,538.524,0.0
51876.0,STARLINK-3583,PAYLOAD,2022-10-31 10:20:10,15.08825464,0.0001815,53.2175,109.5129,41.1726,318.9403,-8.9251e-05,-1.708e-05,0.0,0 STARLINK-3583,1 51876U 22022AA  22304.43067632 -.00001708  00000-0 -89251-4 0  9994,2 51876  53.2175 109.5129 0001815  41.1726 318.9403 15.08825464 38142,6917.925,95.438,541.045,538.534,0.0
51876.0,STARLINK-3583,PAYLOAD,2022-10-31 18:17:05,15.08829318,0.0001921999999999,53.218,108.0266,46.0171,314.0979,-8.3551e-06,-4.21e-06,0.0,0 STARLINK-3583,1 51876U 22022AA  22304.76187396 -.00000421  00000-0 -83551-5 0  9999,2 51876  53.2180 108.0266 0001922  46.0171 314.0979 15.08829318 38193,6917.913000000001,95.438,541.1080000000002,538.448,0.0
51876.0,STARLINK-3583,PAYLOAD,2022-11-01 10:10:56,15.0885796,0.0002041999999999,53.2182,105.0526,45.1855,314.9303,-0.00024766,-4.23e-05,0.0,0 STARLINK-3583,1 51876U 22022AA  22305.42426572 -.00004230  00000-0 -24766-3 0  9998,2 51876  53.2182 105.0526 0002042  45.1855 314.9303 15.08857960 38299,6917.825,95.436,541.1030000000002,538.278,0.0
